[{"OBJECT_NAME":"STARLINK-34954","OBJECT_ID":"2025-184C","EPOCH":"2026-03-09T16:13:06.629952","MEAN_MOTION":15.05646553,"ECCENTRICITY":9.353e-5,"INCLINATION":97.6022,"RA_OF_ASC_NODE":122.5664,"ARG_OF_PERICENTER":87.7211,"MEAN_ANOMALY":272.4123,"EPHEMERIS_TYPE":0,"CLASSIFICATION_TYPE":"U","NORAD_CAT_ID":65275,"ELEMENT_SET_NO":999,"REV_AT_EPOCH":3129,"BSTAR":-8.0689916e-5,"MEAN_MOTION_DOT":-1.225e-5,"MEAN_MOTION_DDOT":0},{"OBJECT_NAME":"AISAT","OBJECT_ID":"2014-034B","EPOCH":"2026-03-09T16:29:04.722144","MEAN_MOTION":15.06703825,"ECCENTRICITY":0.00089151,"INCLINATION":98.2441,"RA_OF_ASC_NODE":333.9816,"ARG_OF_PERICENTER":189.0234,"MEAN_ANOMALY":171.0832,"EPHEMERIS_TYPE":0,"CLASSIFICATION_TYPE":"U","NORAD_CAT_ID":40054,"ELEMENT_SET_NO":999,"REV_AT_EPOCH":63221,"BSTAR":0.00094770343,"MEAN_MOTION_DOT":0.00014038,"MEAN_MOTION_DDOT":0}]
